{"fetched_at":"2026-07-18T17:29:40.888Z","source":"https://celestrak.org/NORAD/elements/gp.php?GROUP=stations&FORMAT=JSON","constellation":"crewed-vehicles","records":[{"OBJECT_NAME":"SOYUZ-MS 28","OBJECT_ID":"2025-275A","EPOCH":"2026-07-18T02:08:01.938048","CLASSIFICATION_TYPE":"U","MEAN_MOTION":15.49037991,"ECCENTRICITY":0.00067939,"INCLINATION":51.6318,"RA_OF_ASC_NODE":147.1664,"ARG_OF_PERICENTER":308.891,"MEAN_ANOMALY":51.1472,"EPHEMERIS_TYPE":0,"NORAD_CAT_ID":66664,"ELEMENT_SET_NO":999,"REV_AT_EPOCH":57542,"BSTAR":0.000076428863,"MEAN_MOTION_DOT":0.00003768,"MEAN_MOTION_DDOT":0},{"OBJECT_NAME":"CREW DRAGON 12","OBJECT_ID":"2026-031A","EPOCH":"2026-07-18T02:08:01.938048","CLASSIFICATION_TYPE":"U","MEAN_MOTION":15.49037991,"ECCENTRICITY":0.00067939,"INCLINATION":51.6318,"RA_OF_ASC_NODE":147.1664,"ARG_OF_PERICENTER":308.891,"MEAN_ANOMALY":51.1472,"EPHEMERIS_TYPE":0,"NORAD_CAT_ID":67796,"ELEMENT_SET_NO":999,"REV_AT_EPOCH":57569,"BSTAR":0.000076428863,"MEAN_MOTION_DOT":0.00003768,"MEAN_MOTION_DDOT":0},{"OBJECT_NAME":"SHENZHOU-23 (SZ-23)","OBJECT_ID":"2026-113A","EPOCH":"2026-07-17T12:32:16.126368","CLASSIFICATION_TYPE":"U","MEAN_MOTION":15.58143309,"ECCENTRICITY":0.00019213,"INCLINATION":41.4691,"RA_OF_ASC_NODE":137.7269,"ARG_OF_PERICENTER":301.5742,"MEAN_ANOMALY":58.4908,"EPHEMERIS_TYPE":0,"NORAD_CAT_ID":69180,"ELEMENT_SET_NO":999,"REV_AT_EPOCH":29737,"BSTAR":0.000018813159,"MEAN_MOTION_DOT":0.00001129,"MEAN_MOTION_DDOT":0}]}
